ONEWEB-0169             
1 48077U 21025AM  23059.43309077  .00000033  00000+0  54939-4 0  9997
2 48077  87.9079 199.6390 0001799  92.2868 267.8467 13.13476699 94154
ONEWEB-0169             
1 48077U 21025AM  23059.89015281 -.00000038  00000+0 -13939-3 0  9999
2 48077  87.9079 199.5487 0001797  92.9474 267.1861 13.13477232 95457
ONEWEB-0169             
1 48077U 21025AM  23060.88046239 -.00000855  00000+0 -23773-2 0  9990
2 48077  87.9078 199.3532 0001726  92.5114 267.6212 13.13471342 94342
ONEWEB-0169             
1 48077U 21025AM  23061.10899050 -.00002875  00000+0 -79091-2 0  9991
2 48077  87.9081 199.3083 0001004  94.5843 265.5401 13.13481828 95615
ONEWEB-0169             
1 48077U 21025AM  23061.79459195 -.00000897  00000+0 -24927-2 0  9998
2 48077  87.9080 199.1728 0001753  91.2670 268.8660 13.13470884 94466
ONEWEB-0169             
1 48077U 21025AM  23061.79459195 -.00000897  00000+0 -24927-2 0  9998
2 48077  87.9080 199.1728 0001753  91.2670 268.8660 13.13470884 95704
ONEWEB-0169             
1 48077U 21025AM  23062.40401261 -.00000541  00000+0 -15174-2 0  9998
2 48077  87.9084 199.0527 0001765  91.4663 268.6669 13.13468908 94543
ONEWEB-0169             
1 48077U 21025AM  23062.86107979 -.00000373  00000+0 -10551-2 0  9994
2 48077  87.9085 198.9617 0001777  91.1467 268.9865 13.13467253 94604
